H1 CPF  1  HTS 2022  9 11 12  7541 ajisai           NONE
H2  8606101 1500    16908 2022 09 11  0  0  0 2022 09 16  0  0  0   240 1 1  0 0 0
H5  1.0100 
H9 
10 0 59835  21840.00000  0    2331402.225   -6066920.688   -4422875.524
10 0 59835  22080.00000  0    3616810.569   -6076107.272   -3436769.449
10 0 59835  22320.00000  0    4736999.441   -5843270.648   -2288585.116
10 0 59835  22560.00000  0    5647911.180   -5372650.208   -1032435.115
10 0 59835  22800.00000  0    6314985.094   -4678297.379     272427.276
10 0 59835  23040.00000  0    6714477.713   -3783773.202    1564440.609
10 0 59835  23280.00000  0    6834272.976   -2721411.435    2782686.456
10 0 59835  23520.00000  0    6674148.648   -1531170.162    3869801.892
10 0 59835  23760.00000  0    6245501.358    -259123.282    4774698.325
10 0 59835  24000.00000  0    5570568.479    1044336.071    5454949.752
10 0 59835  24240.00000  0    4681212.961    2326498.372    5878743.312
10 0 59835  24480.00000  0    3617353.509    3534463.784    6026316.669
10 0 59835  24720.00000  0    2425126.996    4617312.520    5890835.534
10 0 59835  24960.00000  0    1154868.958    5528242.928    5478686.031
10 0 59835  25200.00000  0    -141006.761    6226600.830    4809177.940
10 0 59835  25440.00000  0   -1410154.080    6679722.892    3913671.091
10 0 59835  25680.00000  0   -2602392.456    6864514.728    2834150.768
10 0 59835  25920.00000  0   -3671680.456    6768679.924    1621298.044
10 0 59835  26160.00000  0   -4577887.611    6391520.683     332132.960
10 0 59835  26400.00000  0   -5288293.555    5744248.332    -972668.545
10 0 59835  26640.00000  0   -5778742.230    4849757.251   -2231658.304
10 0 59835  26880.00000  0   -6034395.822    3741857.683   -3385544.018
10 0 59835  27120.00000  0   -6050068.355    2463999.694   -4380006.838
10 0 59835  27360.00000  0   -5830141.487    1067547.171   -5168264.820
10 0 59835  27600.00000  0   -5388089.963    -390314.869   -5713259.654
10 0 59835  27840.00000  0   -4745664.078   -1848945.174   -5989373.065
10 0 59835  28080.00000  0   -3931784.934   -3246784.192   -5983603.807
10 0 59835  28320.00000  0   -2981217.232   -4523962.971   -5696165.830
10 0 59835  28560.00000  0   -1933078.372   -5624889.003   -5140489.750
10 0 59835  28800.00000  0    -829238.070   -6500708.744   -4342623.793
10 0 59835  29040.00000  0     287336.809   -7111541.966   -3340049.853
10 0 59835  29280.00000  0    1374235.489   -7428381.206   -2179953.494
10 0 59835  29520.00000  0    2391194.844   -7434551.628    -917013.110
10 0 59835  29760.00000  0    3301566.883   -7126640.273     389193.454
10 0 59835  30000.00000  0    4073606.413   -6514825.321    1677040.497
10 0 59835  30240.00000  0    4681517.987   -5622565.481    2885813.474
10 0 59835  30480.00000  0    5106217.277   -4485667.705    3958608.319
10 0 59835  30720.00000  0    5335796.915   -3150792.218    4845020.989
10 0 59835  30960.00000  0    5365700.710   -1673470.449    5503500.713
10 0 59835  31200.00000  0    5198620.890    -115734.629    5903259.549
10 0 59835  31440.00000  0    4844146.652    1456526.145    6025661.353
10 0 59835  31680.00000  0    4318203.329    2976366.733    5865046.511
10 0 59835  31920.00000  0    3642321.078    4378637.072    5428973.258
10 0 59835  32160.00000  0    2842764.930    5602780.745    4737870.591
10 0 59835  32400.00000  0    1949552.767    6595475.126    3824113.385
10 0 59835  32640.00000  0     995388.319    7313005.298    2730550.033
10 0 59835  32880.00000  0      14533.596    7723264.006    1508529.727
10 0 59835  33120.00000  0    -958349.649    7807265.531     215507.590
10 0 59835  33360.00000  0   -1889350.442    7560087.483   -1087659.461
10 0 59835  33600.00000  0   -2746416.498    6991182.945   -2339601.055
10 0 59835  33840.00000  0   -3500380.615    6124024.300   -3481359.947
10 0 59835  34080.00000  0   -4125864.540    4995094.624   -4459193.028
10 0 59835  34320.00000  0   -4602034.613    3652290.605   -5227105.341
10 0 59835  34560.00000  0   -4913194.519    2152824.343   -5748997.405
10 0 59835  34800.00000  0   -5049212.533     560730.986   -6000335.671
10 0 59835  35040.00000  0   -5005783.537   -1055904.980   -5969280.474
10 0 59835  35280.00000  0   -4784530.238   -2627886.462   -5657232.482
10 0 59835  35520.00000  0   -4392950.122   -4087887.777   -5078779.153
10 0 59835  35760.00000  0   -3844208.341   -5373373.800   -4261042.184
10 0 59835  36000.00000  0   -3156770.714   -6429336.399   -3242442.601
10 0 59835  36240.00000  0   -2353874.543   -7210726.390   -2070925.062
10 0 59835  36480.00000  0   -1462838.916   -7684462.817    -801709.791
10 0 59835  36720.00000  0    -514223.147   -7830908.681     505330.469
10 0 59835  36960.00000  0     459143.881   -7644723.814    1788535.661
10 0 59835  37200.00000  0    1423230.378   -7135050.335    2987414.320
10 0 59835  37440.00000  0    2343929.311   -6325020.217    4045536.037
10 0 59835  37680.00000  0    3188201.324   -5250616.457    4913199.647
10 0 59835  37920.00000  0    3925187.983   -3958975.665    5549744.402
10 0 59835  38160.00000  0    4527267.419   -2506237.348    5925411.948
10 0 59835  38400.00000  0    4971030.916    -955046.797    6022690.032
10 0 59835  38640.00000  0    5238156.327     628179.359    5837090.266
10 0 59835  38880.00000  0    5316151.043    2176107.963    5377335.773
10 0 59835  39120.00000  0    5198944.345    3623352.612    4664961.786
10 0 59835  39360.00000  0    4887304.808    4909244.428    3733341.778
10 0 59835  39600.00000  0    4389049.842    5980404.515    2626167.909
10 0 59835  39840.00000  0    3719014.796    6793008.855    1395437.409
10 0 59835  40080.00000  0    2898757.885    7314637.144      99024.698
10 0 59835  40320.00000  0    1955987.964    7525608.872   -1202050.041
10 0 59835  40560.00000  0     923722.750    7419734.901   -2446517.693
10 0 59835  40800.00000  0    -160797.541    7004450.556   -3575775.359
10 0 59835  41040.00000  0   -1257405.136    6300328.075   -4536670.249
10 0 59835  41280.00000  0   -2324457.029    5340003.554   -5284006.668
10 0 59835  41520.00000  0   -3320385.175    4166591.999   -5782655.020
10 0 59835  41760.00000  0   -4205287.544    2831685.845   -6009174.380
10 0 59835  42000.00000  0   -4942506.774    1393039.656   -5952889.021
10 0 59835  42240.00000  0   -5500145.253     -87956.400   -5616381.911
10 0 59835  42480.00000  0   -5852463.240   -1548912.038   -5015388.486
10 0 59835  42720.00000  0   -5981105.325   -2929082.271   -4178092.440
10 0 59835  42960.00000  0   -5876094.478   -4171922.392   -3143840.446
10 0 59835  43200.00000  0   -5536529.620   -5227446.937   -1961319.833
10 0 59835  43440.00000  0   -4970930.780   -6054287.357    -686272.639
10 0 59835  43680.00000  0   -4197190.170   -6621350.782     621152.188
10 0 59835  43920.00000  0   -3242105.584   -6908995.528    1899279.514
10 0 59835  44160.00000  0   -2140501.164   -6909661.743    3087866.287
10 0 59835  44400.00000  0    -933974.096   -6627938.421    4130974.802
10 0 59835  44640.00000  0     330677.813   -6080087.478    4979614.888
10 0 59835  44880.00000  0    1603279.731   -5293068.865    5594025.314
10 0 59835  45120.00000  0    2832269.437   -4303139.867    5945491.772
10 0 59835  45360.00000  0    3966771.242   -3154121.995    6017635.099
10 0 59835  45600.00000  0    4958684.754   -1895429.082    5807135.955
10 0 59835  45840.00000  0    5764722.332    -579933.636    5323877.162
10 0 59835  46080.00000  0    6348314.786     738249.856    4590493.417
10 0 59835  46320.00000  0    6681306.483    2005977.505    3641345.564
10 0 59835  46560.00000  0    6745365.319    3173208.245    2520953.936
10 0 59835  46800.00000  0    6533026.361    4194977.210    1281944.784
10 0 59835  47040.00000  0    6048296.850    5033128.893     -17408.961
10 0 59835  47280.00000  0    5306765.668    5657732.640   -1315940.728
10 0 59835  47520.00000  0    4335187.665    6048115.137   -2552497.985
10 0 59835  47760.00000  0    3170553.017    6193466.349   -3668851.519
10 0 59835  48000.00000  0    1858679.053    6093006.398   -4612458.256
10 0 59835  48240.00000  0     452386.789    5755722.156   -5338937.188
10 0 59835  48480.00000  0    -990651.180    5199709.391   -5814139.879
10 0 59835  48720.00000  0   -2410295.197    4451175.736   -6015727.521
10 0 59835  48960.00000  0   -3746456.817    3543167.694   -5934195.259
10 0 59835  49200.00000  0   -4941652.894    2514089.011   -5573310.640
10 0 59835  49440.00000  0   -5943502.521    1406074.079   -4949953.778
10 0 59835  49680.00000  0   -6707070.212     263273.727   -4093360.614
10 0 59835  49920.00000  0   -7196953.893    -869887.519   -3043790.707
10 0 59835  50160.00000  0   -7389013.008   -1950425.283   -1850661.834
10 0 59835  50400.00000  0   -7271630.439   -2938413.744    -570223.691
10 0 59835  50640.00000  0   -6846425.150   -3798438.232     737118.203
10 0 59835  50880.00000  0   -6128364.609   -4500824.351    2009693.914
10 0 59835  51120.00000  0   -5145253.451   -5022593.614    3187526.981
10 0 59835  51360.00000  0   -3936618.452   -5348107.977    4215195.590
10 0 59835  51600.00000  0   -2552054.914   -5469391.114    5044445.603
10 0 59835  51840.00000  0   -1049127.762   -5386138.632    5636430.889
10 0 59835  52080.00000  0     509070.428   -5105448.358    5963490.289
10 0 59835  52320.00000  0    2056598.653   -4641301.829    6010390.898
10 0 59835  52560.00000  0    3527463.394   -4013840.578    5774996.201
10 0 59835  52800.00000  0    4858428.986   -3248485.942    5268350.676
10 0 59835  53040.00000  0    5991747.935   -2374931.815    4514181.105
10 0 59835  53280.00000  0    6877704.480   -1426035.102    3547824.390
10 0 59835  53520.00000  0    7476856.237    -436636.221    2414613.181
10 0 59835  53760.00000  0    7761867.006     557655.102    1167782.026
10 0 59835  54000.00000  0    7718831.681    1521675.358    -134022.139
10 0 59835  54240.00000  0    7348008.364    2421883.664   -1429512.585
99
